{"type": "FeatureCollection", "features": [ {"type": "Feature", "properties": {"norad_id": 42969, "name": "SENTINEL-5P", "group": "resource", "lat": -18.352713812066252, "lon": -73.67084094048424, "alt_km": 832.1346188090374, "timestamp": "2025-12-10T18:56:59.719446+00:00", "meta": {"OBJECT_NAME": "SENTINEL-5P", "OBJECT_ID": "2017-064A", "EPOCH": "2025-12-10T10:34:44.044320", "MEAN_MOTION": 14.19516596, "ECCENTRICITY": 9.63e-05, "INCLINATION": 98.7782, "RA_OF_ASC_NODE": 283.0453, "ARG_OF_PERICENTER": 87.7429, "MEAN_ANOMALY": 272.3857, "EPHEMERIS_TYPE": 0, "CLASSIFICATION_TYPE": "U", "NORAD_CAT_ID": 42969, "ELEMENT_SET_NO": 999, "REV_AT_EPOCH": 42278, "BSTAR": 0.00010288, "MEAN_MOTION_DOT": 1.73e-06, "MEAN_MOTION_DDOT": 0}, "tle": {"line1": "1 42969U 17064A   25344.44078755  .00000173  00000+0  10288-3 0  9998", "line2": "2 42969  98.7782 283.0453 0000963  87.7429 272.3857 14.19516596422787"}}, "geometry": {"type": "Point", "coordinates": [-73.67084094048424, -18.352713812066252]}}, {"type": "Feature", "properties": {"norad_id": 42987, "name": "SKYSAT-C11", "group": "resource", "lat": -78.39428207524307, "lon": 161.586334368865, "alt_km": 432.5789178050172, "timestamp": "2025-12-10T18:56:59.719456+00:00", "meta": {"OBJECT_NAME": "SKYSAT-C11", "OBJECT_ID": "2017-068A", "EPOCH": "2025-12-10T08:26:06.487008", "MEAN_MOTION": 15.47287048, "ECCENTRICITY": 9.34e-05, "INCLINATION": 97.4145, "RA_OF_ASC_NODE": 121.7844, "ARG_OF_PERICENTER": 105.0935, "MEAN_ANOMALY": 255.0418, "EPHEMERIS_TYPE": 0, "CLASSIFICATION_TYPE": "U", "NORAD_CAT_ID": 42987, "ELEMENT_SET_NO": 999, "REV_AT_EPOCH": 45394, "BSTAR": 0.00062244, "MEAN_MOTION_DOT": 0.00031727, "MEAN_MOTION_DDOT": 0}, "tle": {"line1": "1 42987U 17068A   25344.35146397  .00031727  00000+0  62244-3 0  9998", "line2": "2 42987  97.4145 121.7844 0000934 105.0935 255.0418 15.47287048453944"}}, "geometry": {"type": "Point", "coordinates": [161.586334368865, -78.39428207524307]}}, {"type": "Feature", "properties": {"norad_id": 42988, "name": "SKYSAT-C10", "group": "resource", "lat": 71.36379198883402, "lon": -41.612524682071424, "alt_km": 459.35220741132525, "timestamp": "2025-12-10T18:56:59.719466+00:00", "meta": {"OBJECT_NAME": "SKYSAT-C10", "OBJECT_ID": "2017-068B", "EPOCH": "2025-12-10T09:04:43.296096", "MEAN_MOTION": 15.31981221, "ECCENTRICITY": 0.000532, "INCLINATION": 97.4258, "RA_OF_ASC_NODE": 115.2229, "ARG_OF_PERICENTER": 110.4799, "MEAN_ANOMALY": 249.7014, "EPHEMERIS_TYPE": 0, "CLASSIFICATION_TYPE": "U", "NORAD_CAT_ID": 42988, "ELEMENT_SET_NO": 999, "REV_AT_EPOCH": 45343, "BSTAR": 0.00054588, "MEAN_MOTION_DOT": 0.00016803, "MEAN_MOTION_DDOT": 0}, "tle": {"line1": "1 42988U 17068B   25344.37827889  .00016803  00000+0  54588-3 0  9993", "line2": "2 42988  97.4258 115.2229 0005320 110.4799 249.7014 15.31981221453430"}}, "geometry": {"type": "Point", "coordinates": [-41.612524682071424, 71.36379198883402]}}, {"type": "Feature", "properties": {"norad_id": 42989, "name": "SKYSAT-C9", "group": "resource", "lat": -71.78753623745341, "lon": 138.3576808919321, "alt_km": 472.49004442437035, "timestamp": "2025-12-10T18:56:59.719476+00:00", "meta": {"OBJECT_NAME": "SKYSAT-C9", "OBJECT_ID": "2017-068C", "EPOCH": "2025-12-10T08:19:27.428736", "MEAN_MOTION": 15.35952055, "ECCENTRICITY": 0.0010695, "INCLINATION": 97.4187, "RA_OF_ASC_NODE": 114.5818, "ARG_OF_PERICENTER": 95.364, "MEAN_ANOMALY": 264.8824, "EPHEMERIS_TYPE": 0, "CLASSIFICATION_TYPE": "U", "NORAD_CAT_ID": 42989, "ELEMENT_SET_NO": 999, "REV_AT_EPOCH": 45371, "BSTAR": 0.00054624, "MEAN_MOTION_DOT": 0.00019096, "MEAN_MOTION_DDOT": 0}, "tle": {"line1": "1 42989U 17068C   25344.34684524  .00019096  00000+0  54624-3 0  9996", "line2": "2 42989  97.4187 114.5818 0010695  95.3640 264.8824 15.35952055453710"}}, "geometry": {"type": "Point", "coordinates": [138.3576808919321, -71.78753623745341]}}, {"type": "Feature", "properties": {"norad_id": 42990, "name": "SKYSAT-C8", "group": "resource", "lat": -78.01013084629832, "lon": 152.68464022828047, "alt_km": 474.44035448116756, "timestamp": "2025-12-10T18:56:59.719486+00:00", "meta": {"OBJECT_NAME": "SKYSAT-C8", "OBJECT_ID": "2017-068D", "EPOCH": "2025-12-10T08:20:01.637952", "MEAN_MOTION": 15.32834789, "ECCENTRICITY": 0.000174, "INCLINATION": 97.428, "RA_OF_ASC_NODE": 114.3373, "ARG_OF_PERICENTER": 359.9968, "MEAN_ANOMALY": 0.1273, "EPHEMERIS_TYPE": 0, "CLASSIFICATION_TYPE": "U", "NORAD_CAT_ID": 42990, "ELEMENT_SET_NO": 999, "REV_AT_EPOCH": 45334, "BSTAR": 0.00052396, "MEAN_MOTION_DOT": 0.00016555, "MEAN_MOTION_DDOT": 0}, "tle": {"line1": "1 42990U 17068D   25344.34724118  .00016555  00000+0  52396-3 0  9993", "line2": "2 42990  97.4280 114.3373 0001740 359.9968   0.1273 15.32834789453341"}}, "geometry": {"type": "Point", "coordinates": [152.68464022828047, -78.01013084629832]}}, {"type": "Feature", "properties": {"norad_id": 42991, "name": "SKYSAT-C7", "group": "resource", "lat": 40.346040271432976, "lon": -57.81233674287733, "alt_km": 464.70734718750464, "timestamp": "2025-12-10T18:56:59.719496+00:00", "meta": {"OBJECT_NAME": "SKYSAT-C7", "OBJECT_ID": "2017-068E", "EPOCH": "2025-12-10T08:56:28.824576", "MEAN_MOTION": 15.32242586, "ECCENTRICITY": 0.0007738, "INCLINATION": 97.4288, "RA_OF_ASC_NODE": 115.4058, "ARG_OF_PERICENTER": 64.6982, "MEAN_ANOMALY": 295.5061, "EPHEMERIS_TYPE": 0, "CLASSIFICATION_TYPE": "U", "NORAD_CAT_ID": 42991, "ELEMENT_SET_NO": 999, "REV_AT_EPOCH": 45341, "BSTAR": 0.00055144, "MEAN_MOTION_DOT": 0.00017123, "MEAN_MOTION_DDOT": 0}, "tle": {"line1": "1 42991U 17068E   25344.37255584  .00017123  00000+0  55144-3 0  9999", "line2": "2 42991  97.4288 115.4058 0007738  64.6982 295.5061 15.32242586453412"}}, "geometry": {"type": "Point", "coordinates": [-57.81233674287733, 40.346040271432976]}}, {"type": "Feature", "properties": {"norad_id": 42992, "name": "SKYSAT-C6", "group": "resource", "lat": -79.00048575321293, "lon": -105.92682092978461, "alt_km": 482.48712986688497, "timestamp": "2025-12-10T18:56:59.719505+00:00", "meta": {"OBJECT_NAME": "SKYSAT-C6", "OBJECT_ID": "2017-068F", "EPOCH": "2025-12-10T08:24:03.436992", "MEAN_MOTION": 15.31408084, "ECCENTRICITY": 0.0005216, "INCLINATION": 97.4322, "RA_OF_ASC_NODE": 115.8236, "ARG_OF_PERICENTER": 88.967, "MEAN_ANOMALY": 271.2169, "EPHEMERIS_TYPE": 0, "CLASSIFICATION_TYPE": "U", "NORAD_CAT_ID": 42992, "ELEMENT_SET_NO": 999, "REV_AT_EPOCH": 45339, "BSTAR": 0.00050529, "MEAN_MOTION_DOT": 0.00015268, "MEAN_MOTION_DDOT": 0}, "tle": {"line1": "1 42992U 17068F   25344.35003978  .00015268  00000+0  50529-3 0  9996", "line2": "2 42992  97.4322 115.8236 0005216  88.9670 271.2169 15.31408084453399"}}, "geometry": {"type": "Point", "coordinates": [-105.92682092978461, -79.00048575321293]}}, {"type": "Feature", "properties": {"norad_id": 43111, "name": "CARTOSAT-2F", "group": "resource", "lat": 81.671415643908, "lon": -74.46384868493958, "alt_km": 500.32443576082005, "timestamp": "2025-12-10T18:56:59.719515+00:00", "meta": {"OBJECT_NAME": "CARTOSAT-2F", "OBJECT_ID": "2018-004A", "EPOCH": "2025-12-10T10:38:06.220320", "MEAN_MOTION": 15.19237077, "ECCENTRICITY": 7.96e-05, "INCLINATION": 97.4315, "RA_OF_ASC_NODE": 42.118, "ARG_OF_PERICENTER": 143.5592, "MEAN_ANOMALY": 216.5697, "EPHEMERIS_TYPE": 0, "CLASSIFICATION_TYPE": "U", "NORAD_CAT_ID": 43111, "ELEMENT_SET_NO": 999, "REV_AT_EPOCH": 43867, "BSTAR": 0.00039049, "MEAN_MOTION_DOT": 8.163e-05, "MEAN_MOTION_DDOT": 0}, "tle": {"line1": "1 43111U 18004A   25344.44312755  .00008163  00000+0  39049-3 0  9997", "line2": "2 43111  97.4315  42.1180 0000796 143.5592 216.5697 15.19237077438674"}}, "geometry": {"type": "Point", "coordinates": [-74.46384868493958, 81.671415643908]}}, {"type": "Feature", "properties": {"norad_id": 43259, "name": "GAOFEN-1 02", "group": "resource", "lat": 19.514418969621815, "lon": -134.53584652389696, "alt_km": 640.0987780573569, "timestamp": "2025-12-10T18:56:59.719525+00:00", "meta": {"OBJECT_NAME": "GAOFEN-1 02", "OBJECT_ID": "2018-031A", "EPOCH": "2025-12-10T10:05:39.541920", "MEAN_MOTION": 14.76473501, "ECCENTRICITY": 0.0001467, "INCLINATION": 98.0805, "RA_OF_ASC_NODE": 42.209, "ARG_OF_PERICENTER": 219.8882, "MEAN_ANOMALY": 140.222, "EPHEMERIS_TYPE": 0, "CLASSIFICATION_TYPE": "U", "NORAD_CAT_ID": 43259, "ELEMENT_SET_NO": 999, "REV_AT_EPOCH": 41484, "BSTAR": 0.00024425, "MEAN_MOTION_DOT": 1.648e-05, "MEAN_MOTION_DDOT": 0}, "tle": {"line1": "1 43259U 18031A   25344.42059655  .00001648  00000+0  24425-3 0  9998", "line2": "2 43259  98.0805  42.2090 0001467 219.8882 140.2220 14.76473501414848"}}, "geometry": {"type": "Point", "coordinates": [-134.53584652389696, 19.514418969621815]}}, {"type": "Feature", "properties": {"norad_id": 43260, "name": "GAOFEN-1 03", "group": "resource", "lat": -80.2565193565693, "lon": 98.28030517097746, "alt_km": 647.1212873290096, "timestamp": "2025-12-10T18:56:59.719541+00:00", "meta": {"OBJECT_NAME": "GAOFEN-1 03", "OBJECT_ID": "2018-031B", "EPOCH": "2025-12-10T12:49:34.148064", "MEAN_MOTION": 14.76429671, "ECCENTRICITY": 0.0002127, "INCLINATION": 98.0802, "RA_OF_ASC_NODE": 42.2, "ARG_OF_PERICENTER": 332.1525, "MEAN_ANOMALY": 27.957, "EPHEMERIS_TYPE": 0, "CLASSIFICATION_TYPE": "U", "NORAD_CAT_ID": 43260, "ELEMENT_SET_NO": 999, "REV_AT_EPOCH": 41485, "BSTAR": 0.00022389, "MEAN_MOTION_DOT": 1.505e-05, "MEAN_MOTION_DDOT": 0}, "tle": {"line1": "1 43260U 18031B   25344.53442301  .00001505  00000+0  22389-3 0  9995", "line2": "2 43260  98.0802  42.2000 0002127 332.1525  27.9570 14.76429671414854"}}, "geometry": {"type": "Point", "coordinates": [98.28030517097746, -80.2565193565693]}}]}